[{"OBJECT_NAME":"SALSAT","OBJECT_ID":"2020-068K","EPOCH":"2022-08-18T11:26:56.083200","MEAN_MOTION":15.04722748,"ECCENTRICITY":0.0018064,"INCLINATION":97.7308,"RA_OF_ASC_NODE":171.8131,"ARG_OF_PERICENTER":69.3851,"MEAN_ANOMALY":290.931,"EPHEMERIS_TYPE":0,"CLASSIFICATION_TYPE":"U","NORAD_CAT_ID":46495,"ELEMENT_SET_NO":999,"REV_AT_EPOCH":10351,"BSTAR":0.00011486,"MEAN_MOTION_DOT":1.56e-5,"MEAN_MOTION_DDOT":0}]